EYESAT-1 (AO-27)        
1 22825U 93061C   17250.47701354  .00000003  00000-0  18991-4 0  9999
2 22825  98.8210 217.1069 0009537  90.9554 269.2720 14.30004957249164
CUTE-1 (CO-55)          
1 27844U 03031E   17251.03060706  .00000108  00000-0  68563-4 0  9991
2 27844  98.6904 258.8339 0010898 105.9758 254.2621 14.22057482736094
CUBESAT XI-IV (CO-57)   
1 27848U 03031J   17250.98249700  .00000074  00000-0  53736-4 0  9999
2 27848  98.6996 259.0798 0010731 114.7830 245.4465 14.21669585735961
CUBESAT XI 5            
1 28895U 05043F   17250.42783388  .00000283  00000-0  63432-4 0  9997
2 28895  97.8745  48.9738 0015650 241.1741 118.7892 14.63430576632512
CUTE-1.7+APD II (CO-65) 
1 32785U 08021C   17250.22023613  .00000510  00000-0  61283-4 0  9990
2 32785  97.5633 270.7331 0011616 254.9325 105.0607 14.87939683507096
COMPASS-1               
1 32787U 08021E   17250.73891442  .00000910  00000-0  93382-4 0  9990
2 32787  97.5547 280.6046 0011601 216.8587 143.1837 14.92692333507818
AAUSAT-II               
1 32788U 08021F   17250.61887330  .00001117  00000-0  10993-3 0  9995
2 32788  97.5531 283.4742 0011215 208.1931 151.8684 14.93971933507985
DELFI-C3 (DO-64)        
1 32789U 08021G   17250.60231954  .00003225  00000-0  23038-3 0  9996
2 32789  97.5516 307.0766 0013044 173.5308 186.6090 15.05126964509162
CANX-2                  
1 32790U 08021H   17250.55145164  .00000519  00000-0  62684-4 0  9993
2 32790  97.5615 269.3701 0012297 255.7285 104.2567 14.87662303507084
SEEDS II (CO-66)        
1 32791U 08021J   17250.36124477  .00000817  00000-0  89525-4 0  9991
2 32791  97.5592 275.4834 0012141 236.2544 123.7518 14.90294761507382
SWISSCUBE               
1 35932U 09051B   17251.08129423  .00000305  00000-0  80078-4 0  9997
2 35932  98.5074  31.1231 0007584   5.8313 354.2971 14.56046204422384
BEESAT                  
1 35933U 09051C   17250.37378087  .00000229  00000-0  62709-4 0  9997
2 35933  98.5114  31.7659 0006145  23.4999 336.6477 14.56161668422307
ITUPSAT 1               
1 35935U 09051E   17250.33869216  .00000184  00000-0  53542-4 0  9999
2 35935  98.5224  31.9846 0008302  14.5781 345.5654 14.55352126422157
TISAT 1                 
1 36799U 10035E   17250.58674186  .00001066  00000-0  11521-3 0  9999
2 36799  98.0714  15.0305 0013554  60.3218 299.9347 14.90479531387854
M-CUBED & EXP-1 PRIME   
1 37855U 11061F   17250.46602913  .00001909  00000-0  10698-3 0  9999
2 37855 101.7046 163.6775 0179904 198.3398 161.1271 15.03297728319157
HORYU 2                 
1 38340U 12025D   17250.89628854  .00000559  00000-0  90379-4 0  9994
2 38340  98.3781 257.7396 0012393  34.6529 325.5484 14.75386618285489
STRAND-1                
1 39090U 13009E   17251.13748319  .00000074  00000-0  41274-4 0  9999
2 39090  98.5472  95.7696 0010255  57.9267 302.2912 14.34981478237379
BRITE-AUSTRIA           
1 39091U 13009F   17251.07855613  .00000023  00000-0  23435-4 0  9992
2 39091  98.5437  95.0718 0011605  64.7467 295.4919 14.35039054237383
UNIBRITE                
1 39092U 13009G   17250.80623061  .00000038  00000-0  28923-4 0  9996
2 39092  98.5447  94.4851 0010442  59.8369 300.3850 14.34913758237325
AIST-2                  
1 39133U 13015D   17251.13600416  .00000730  00000-0  64006-4 0  9996
2 39133  64.8744  23.4041 0038320 268.0892  91.5839 15.04342858240774
SOMP                    
1 39134U 13015E   17250.50713061  .00003892  00000-0  19617-3 0  9997
2 39134  64.8659 320.6951 0039483 250.5778 109.1079 15.18064595241599
BEESAT-2                
1 39136U 13015G   17250.61458475  .00003152  00000-0  17461-3 0  9990
2 39136  64.8724 332.2046 0034033 271.7097  88.0130 15.15297343241761
NEE-01 PEGASUS          
1 39151U 13018B   17251.20808236  .00000576  00000-0  83427-4 0  9993
2 39151  97.9833 342.2045 0018122 138.4098 221.8496 14.79757563235812
CUBEBUG-1 (CAPITAN BETO)
1 39153U 13018D   17251.23967529  .00000683  00000-0  96647-4 0  9996
2 39153  97.9857 343.0964 0018048 136.4991 223.7648 14.80224313235876
ESTCUBE 1               
1 39161U 13021C   17251.06606528  .00001099  00000-0  18316-3 0  9997
2 39161  98.0261 335.9837 0008527 231.1462 128.9062 14.71933589232945
POPACS 1                
1 39268U 13055D   17250.43227763  .00007698  00000-0  22200-3 0  9990
2 39268  81.0012 282.3346 0647759 338.4194  19.0770 14.31725060203952
POPACS 2                
1 39269U 13055E   17250.42747638  .00005099  00000-0  14960-3 0  9995
2 39269  81.0154 298.6906 0699055  21.0656 341.7846 14.20453634202979
POPACS 3                
1 39270U 13055F   17250.45454234  .00003077  00000-0  96004-4 0  9991
2 39270  81.0190 307.6303 0724580  48.0799 317.9869 14.13537532181699
FIREFLY                 
1 39404U 13064AA  17250.11729028  .00132785  00000-0  53169-3 0  9992
2 39404  40.4942 142.6452 0010874 290.2344  69.7317 15.85210070210626
ZACUBE-1 (TSHEPISOSAT)  
1 39417U 13066B   17251.07560443  .00000580  00000-0  79716-4 0  9992
2 39417  97.6226 289.2674 0059212   0.3440 359.7803 14.80758851205049
WNISAT-1                
1 39423U 13066H   17251.19179949  .00000023  00000-0  14128-4 0  9997
2 39423  97.6891 232.7239 0175594 178.1418 182.0469 14.52865696201287
TRITON-1                
1 39427U 13066M   17250.49035798  .00000465  00000-0  82002-4 0  9992
2 39427  97.6375 260.3316 0115854  85.2188 276.2236 14.67500300202920
GOMX 1                  
1 39430U 13066Q   17250.88763137  .00000420  00000-0  84885-4 0  9996
2 39430  97.6698 243.6408 0152750 141.4152 219.8085 14.58909745201997
BRITE-PL                
1 39431U 13066R   17250.48356414  .00000124  00000-0  37050-4 0  9992
2 39431  97.7150 220.9780 0201621 220.7041 137.8938 14.46863735200151
HUMSAT-D                
1 39433U 13066T   17250.70729413  .00001182  00000-0  12261-3 0  9993
2 39433  97.6452 311.3598 0029777 304.2493  55.5906 14.91523368206318
EAGLE 2                 
1 39436U 13066W   17250.85065898  .00066207  00000-0  15947-2 0  9994
2 39436  97.7130   1.0382 0009842 146.9669 213.2193 15.40977959209369
CUBEBUG-2 (LO-74)       
1 39440U 13066AA  17250.64184767  .00000595  00000-0  89938-4 0  9994
2 39440  97.6240 277.3921 0081520  33.8301 326.8072 14.75498449204251
NEE-02 KRYSAOR          
1 39441U 13066AB  17250.28894615  .00000380  00000-0  61115-4 0  9994
2 39441  97.6223 275.6483 0083037  38.7680 321.9448 14.74652295204080
FUNCUBE-1 (AO-73)       
1 39444U 13066AE  17250.60877910  .00000676  00000-0  90337-4 0  9998
2 39444  97.6242 289.9835 0058319 358.3729   1.7286 14.81501501203222
UWE-3                   
1 39446U 13066AG  17250.60677910  .00000584  00000-0  84442-4 0  9996
2 39446  97.6221 282.7811 0070823  18.2239 342.1486 14.78031565202786
BRITE-TORONTO           
1 40020U 14033L   17251.21505197  .00000289  00000-0  57655-4 0  9994
2 40020  97.8234 118.2139 0088925  63.2297 297.7971 14.66416335172266
DUCHIFAT-1              
1 40021U 14033M   17250.76948083  .00001260  00000-0  13645-3 0  9999
2 40021  97.9135 164.0384 0014067  34.3470 325.8654 14.89973054174890
FLOCK 1C-10             
1 40023U 14033P   17251.20267839  .00000192  00000-0  26465-4 0  9992
2 40023  97.9155 163.4391 0013777  39.6126 320.6156 14.88822793174856
NANOSATC-BR1            
1 40024U 14033Q   17251.21231578  .00001143  00000-0  12644-3 0  9995
2 40024  97.9090 163.2366 0013330  34.7046 325.5037 14.89288988174908
QB50P1                  
1 40025U 14033R   17251.16925315  .00000884  00000-0  10111-3 0  9997
2 40025  97.9067 162.1104 0013536  37.6769 322.5393 14.88479689174836
FLOCK 1C-7              
1 40026U 14033S   17251.17852691  .00001587  00000-0  17220-3 0  9994
2 40026  97.9205 164.2497 0012227  36.7256 323.4808 14.89560233174902
FLOCK 1C-1              
1 40027U 14033T   17251.16720912  .00001670  00000-0  18375-3 0  9999
2 40027  97.9191 163.6529 0014096  36.0756 324.1413 14.88887247174861
POPSAT-HIP-1            
1 40028U 14033U   17251.14086644  .00000289  00000-0  37280-4 0  9997
2 40028  97.9100 162.3809 0015070  35.5533 324.6690 14.88345232174819
FLOCK 1C-2              
1 40029U 14033V   17251.19513253  .00002014  00000-0  22022-3 0  9999
2 40029  97.9184 163.5329 0015296  30.6205 329.5942 14.88904495174854
FLOCK 1C-4              
1 40031U 14033X   17251.01826092  .00001059  00000-0  11907-3 0  9999
2 40031  97.9187 163.3247 0015760  31.0795 329.1382 14.88748491174814
QB50P2                  
1 40032U 14033Y   17250.29995199  .00000686  00000-0  80703-4 0  9990
2 40032  97.9038 160.2763 0012893  35.9656 324.2426 14.88033185174656
FLOCK 1C-11             
1 40033U 14033Z   17251.19481835  .00001493  00000-0  15959-3 0  9995
2 40033  97.9224 165.1068 0013076  24.3955 335.7899 14.90233582174954
ANTELSAT                
1 40034U 14033AA  17250.50684764  .00000495  00000-0  81373-4 0  9991
2 40034  97.8470 131.8377 0059921  29.3155 331.1394 14.73742387173055
FLOCK 1C-9              
1 40035U 14033AB  17251.18076815  .00002057  00000-0  22458-3 0  9993
2 40035  97.9192 163.9182 0012829  25.5497 334.6368 14.88961283174853
FLOCK 1C-6              
1 40036U 14033AC  17251.19586679  .00000781  00000-0  88850-4 0  9990
2 40036  97.9205 164.1629 0013139  26.9826 333.2171 14.89065524174877
PERSEUS-M2              
1 40037U 14033AD  17251.20607596  .00000406  00000-0  52336-4 0  9999
2 40037  97.9052 159.5249 0015386  38.2399 321.9904 14.86253431174647
FLOCK 1C-5              
1 40038U 14033AE  17251.20390001  .00000951  00000-0  10684-3 0  9994
2 40038  97.9206 163.9625 0015358  25.7120 334.4925 14.89046637174865
PERSEUS-M1              
1 40039U 14033AF  17250.62074621  .00000321  00000-0  43087-4 0  9992
2 40039  97.9058 158.4647 0015188  36.4225 323.8021 14.85876611174004
FLOCK 1C-8              
1 40040U 14033AG  17251.01923865  .00000499  00000-0  56294-4 0  9991
2 40040  97.9240 166.1591 0013580  14.0562 346.1041 14.90998371174973
